{
  "type": "FeatureCollection",
  "features": [
    {
      "type": "Feature",
      "properties": {
        "norad_id": 66534,
        "name": "STARLINK-35976",
        "group": "last-30-days",
        "lat": -40.6284941880682,
        "lon": 11.290405814332878,
        "alt_km": 400.1720115996941,
        "timestamp": "2025-12-08T13:49:30.576785+00:00",
        "meta_object_name": "STARLINK-35976",
        "meta_object_id": "2025-265U",
        "meta_epoch": "2025-12-08T06:00:02.999808",
        "meta_mean_motion": 15.57920014,
        "meta_eccentricity": 0.00011265,
        "meta_inclination": 43.0006,
        "meta_ra_of_asc_node": 80.2453,
        "meta_arg_of_pericenter": 263.0477,
        "meta_mean_anomaly": 354.3924,
        "meta_ephemeris_type": 0,
        "meta_classification_type": "U",
        "meta_norad_cat_id": 66534,
        "meta_element_set_no": 999,
        "meta_rev_at_epoch": 427,
        "meta_bstar": -0.029268532,
        "meta_mean_motion_dot": -0.01973773,
        "meta_mean_motion_ddot": 0,
        "tle_line1": "1 66534U 25265U   25342.25003472 -.01973773  00000+0 -29269-1 0  9990",
        "tle_line2": "2 66534  43.0006  80.2453 0001126 263.0477 354.3924 15.57920014  4277"
      },
      "geometry": {
        "type": "Point",
        "coordinates": [
          11.290405814332878,
          -40.6284941880682
        ]
      }
    },
    {
      "type": "Feature",
      "properties": {
        "norad_id": 66535,
        "name": "STARLINK-35514",
        "group": "last-30-days",
        "lat": -40.09307268791704,
        "lon": 13.700330890492681,
        "alt_km": 400.18014582541036,
        "timestamp": "2025-12-08T13:49:30.576798+00:00",
        "meta_object_name": "STARLINK-35514",
        "meta_object_id": "2025-265V",
        "meta_epoch": "2025-12-08T06:00:02.999808",
        "meta_mean_motion": 15.57920416,
        "meta_eccentricity": 0.00011579,
        "meta_inclination": 43.0002,
        "meta_ra_of_asc_node": 80.2407,
        "meta_arg_of_pericenter": 258.7951,
        "meta_mean_anomaly": 0.5622,
        "meta_ephemeris_type": 0,
        "meta_classification_type": "U",
        "meta_norad_cat_id": 66535,
        "meta_element_set_no": 999,
        "meta_rev_at_epoch": 427,
        "meta_bstar": -0.029288792,
        "meta_mean_motion_dot": -0.0197502,
        "meta_mean_motion_ddot": 0,
        "tle_line1": "1 66535U 25265V   25342.25003472 -.01975020  00000+0 -29289-1 0  9990",
        "tle_line2": "2 66535  43.0002  80.2407 0001157 258.7951   0.5622 15.57920416  4276"
      },
      "geometry": {
        "type": "Point",
        "coordinates": [
          13.700330890492681,
          -40.09307268791704
        ]
      }
    },
    {
      "type": "Feature",
      "properties": {
        "norad_id": 66536,
        "name": "STARLINK-35640",
        "group": "last-30-days",
        "lat": -39.509601038622165,
        "lon": 16.067535972658835,
        "alt_km": 400.04583516802904,
        "timestamp": "2025-12-08T13:49:30.576808+00:00",
        "meta_object_name": "STARLINK-35640",
        "meta_object_id": "2025-265W",
        "meta_epoch": "2025-12-08T06:00:02.999808",
        "meta_mean_motion": 15.5793345,
        "meta_eccentricity": 0.00013074,
        "meta_inclination": 43.0005,
        "meta_ra_of_asc_node": 80.235,
        "meta_arg_of_pericenter": 264.2592,
        "meta_mean_anomaly": 357.0125,
        "meta_ephemeris_type": 0,
        "meta_classification_type": "U",
        "meta_norad_cat_id": 66536,
        "meta_element_set_no": 999,
        "meta_rev_at_epoch": 425,
        "meta_bstar": -0.029711655,
        "meta_mean_motion_dot": -0.02000939,
        "meta_mean_motion_ddot": 0,
        "tle_line1": "1 66536U 25265W   25342.25003472 -.02000939  00000+0 -29712-1 0  9991",
        "tle_line2": "2 66536  43.0005  80.2350 0001307 264.2592 357.0125 15.57933450  4255"
      },
      "geometry": {
        "type": "Point",
        "coordinates": [
          16.067535972658835,
          -39.509601038622165
        ]
      }
    },
    {
      "type": "Feature",
      "properties": {
        "norad_id": 66537,
        "name": "STARLINK-35582",
        "group": "last-30-days",
        "lat": -38.87928238518638,
        "lon": 18.390975661810025,
        "alt_km": 399.9767062515393,
        "timestamp": "2025-12-08T13:49:30.576820+00:00",
        "meta_object_name": "STARLINK-35582",
        "meta_object_id": "2025-265X",
        "meta_epoch": "2025-12-08T06:00:02.999808",
        "meta_mean_motion": 15.57929077,
        "meta_eccentricity": 0.00013142,
        "meta_inclination": 43.0005,
        "meta_ra_of_asc_node": 80.2297,
        "meta_arg_of_pericenter": 268.9179,
        "meta_mean_anomaly": 354.2691,
        "meta_ephemeris_type": 0,
        "meta_classification_type": "U",
        "meta_norad_cat_id": 66537,
        "meta_element_set_no": 999,
        "meta_rev_at_epoch": 427,
        "meta_bstar": -0.02953238,
        "meta_mean_motion_dot": -0.01990085,
        "meta_mean_motion_ddot": 0,
        "tle_line1": "1 66537U 25265X   25342.25003472 -.01990085  00000+0 -29532-1 0  9991",
        "tle_line2": "2 66537  43.0005  80.2297 0001314 268.9179 354.2691 15.57929077  4275"
      },
      "geometry": {
        "type": "Point",
        "coordinates": [
          18.390975661810025,
          -38.87928238518638
        ]
      }
    },
    {
      "type": "Feature",
      "properties": {
        "norad_id": 66538,
        "name": "STARLINK-35577",
        "group": "last-30-days",
        "lat": -38.20108620760119,
        "lon": 20.679988520638847,
        "alt_km": 399.9467927683427,
        "timestamp": "2025-12-08T13:49:30.576830+00:00",
        "meta_object_name": "STARLINK-35577",
        "meta_object_id": "2025-265Y",
        "meta_epoch": "2025-12-08T06:00:02.999808",
        "meta_mean_motion": 15.57929359,
        "meta_eccentricity": 0.00013864,
        "meta_inclination": 43.0004,
        "meta_ra_of_asc_node": 80.2247,
        "meta_arg_of_pericenter": 265.8828,
        "meta_mean_anomaly": 359.2242,
        "meta_ephemeris_type": 0,
        "meta_classification_type": "U",
        "meta_norad_cat_id": 66538,
        "meta_element_set_no": 999,
        "meta_rev_at_epoch": 427,
        "meta_bstar": -0.029579435,
        "meta_mean_motion_dot": -0.0199293,
        "meta_mean_motion_ddot": 0,
        "tle_line1": "1 66538U 25265Y   25342.25003472 -.01992930  00000+0 -29579-1 0  9994",
        "tle_line2": "2 66538  43.0004  80.2247 0001386 265.8828 359.2242 15.57929359  4276"
      },
      "geometry": {
        "type": "Point",
        "coordinates": [
          20.679988520638847,
          -38.20108620760119
        ]
      }
    },
    {
      "type": "Feature",
      "properties": {
        "norad_id": 66539,
        "name": "STARLINK-35697",
        "group": "last-30-days",
        "lat": -37.481271884254255,
        "lon": 22.919479461211406,
        "alt_km": 399.98026898893295,
        "timestamp": "2025-12-08T13:49:30.576840+00:00",
        "meta_object_name": "STARLINK-35697",
        "meta_object_id": "2025-265Z",
        "meta_epoch": "2025-12-08T06:00:02.999808",
        "meta_mean_motion": 15.57924906,
        "meta_eccentricity": 0.00012638,
        "meta_inclination": 43.0006,
        "meta_ra_of_asc_node": 80.2195,
        "meta_arg_of_pericenter": 268.1851,
        "meta_mean_anomaly": 358.8405,
        "meta_ephemeris_type": 0,
        "meta_classification_type": "U",
        "meta_norad_cat_id": 66539,
        "meta_element_set_no": 999,
        "meta_rev_at_epoch": 427,
        "meta_bstar": -0.029464376,
        "meta_mean_motion_dot": -0.0198576,
        "meta_mean_motion_ddot": 0,
        "tle_line1": "1 66539U 25265Z   25342.25003472 -.01985760  00000+0 -29464-1 0  9991",
        "tle_line2": "2 66539  43.0006  80.2195 0001263 268.1851 358.8405 15.57924906  4276"
      },
      "geometry": {
        "type": "Point",
        "coordinates": [
          22.919479461211406,
          -37.481271884254255
        ]
      }
    },
    {
      "type": "Feature",
      "properties": {
        "norad_id": 66540,
        "name": "STARLINK-35818",
        "group": "last-30-days",
        "lat": -36.71936745698547,
        "lon": 25.117154634385063,
        "alt_km": 399.9506358563258,
        "timestamp": "2025-12-08T13:49:30.576853+00:00",
        "meta_object_name": "STARLINK-35818",
        "meta_object_id": "2025-265AA",
        "meta_epoch": "2025-12-08T06:00:02.999808",
        "meta_mean_motion": 15.57925253,
        "meta_eccentricity": 0.00012764,
        "meta_inclination": 43.0008,
        "meta_ra_of_asc_node": 80.2153,
        "meta_arg_of_pericenter": 268.0569,
        "meta_mean_anomaly": 0.8846,
        "meta_ephemeris_type": 0,
        "meta_classification_type": "U",
        "meta_norad_cat_id": 66540,
        "meta_element_set_no": 999,
        "meta_rev_at_epoch": 427,
        "meta_bstar": -0.029463218,
        "meta_mean_motion_dot": -0.01985723,
        "meta_mean_motion_ddot": 0,
        "tle_line1": "1 66540U 25265AA  25342.25003472 -.01985723  00000+0 -29463-1 0  9991",
        "tle_line2": "2 66540  43.0008  80.2153 0001276 268.0569   0.8846 15.57925253  4272"
      },
      "geometry": {
        "type": "Point",
        "coordinates": [
          25.117154634385063,
          -36.71936745698547
        ]
      }
    }
  ]
}